[{"OBJECT_NAME":"ONEWEB-0517","OBJECT_ID":"2022-138Y","EPOCH":"2026-03-09T17:32:26.321280","MEAN_MOTION":13.19725911,"ECCENTRICITY":0.00014399,"INCLINATION":87.9233,"RA_OF_ASC_NODE":324.7811,"ARG_OF_PERICENTER":75.5282,"MEAN_ANOMALY":284.6011,"EPHEMERIS_TYPE":0,"CLASSIFICATION_TYPE":"U","NORAD_CAT_ID":54135,"ELEMENT_SET_NO":999,"REV_AT_EPOCH":16371,"BSTAR":-0.00046570127,"MEAN_MOTION_DOT":-1.74e-6,"MEAN_MOTION_DDOT":0},{"OBJECT_NAME":"SL-8 R\/B","OBJECT_ID":"1971-099B","EPOCH":"2026-03-09T11:07:11.343072","MEAN_MOTION":13.17683303,"ECCENTRICITY":0.00230068,"INCLINATION":74.0298,"RA_OF_ASC_NODE":73.2794,"ARG_OF_PERICENTER":323.1377,"MEAN_ANOMALY":190.6292,"EPHEMERIS_TYPE":0,"CLASSIFICATION_TYPE":"U","NORAD_CAT_ID":5615,"ELEMENT_SET_NO":999,"REV_AT_EPOCH":61155,"BSTAR":-0.00011403671,"MEAN_MOTION_DOT":-6.4e-7,"MEAN_MOTION_DDOT":0}]
